{"fetched_at":"2026-03-30T06:02:59Z","count":15439,"tles":[{"name":"STARLINK-32788","line1":"1 62502U 25003R   26087.72410283  .00023156  00000+0  84770-3 0  9990","line2":"2 62502  43.0030 181.3884 0001733 279.7406  80.3249 15.27605519 69461","category":"Starlink"}]}